[{"OBJECT_NAME":"BRO-18","OBJECT_ID":"2025-135Y","EPOCH":"2026-03-09T22:42:21.749184","MEAN_MOTION":15.2098794,"ECCENTRICITY":0.00011227,"INCLINATION":97.4502,"RA_OF_ASC_NODE":184.8927,"ARG_OF_PERICENTER":149.5885,"MEAN_ANOMALY":210.5415,"EPHEMERIS_TYPE":0,"CLASSIFICATION_TYPE":"U","NORAD_CAT_ID":64550,"ELEMENT_SET_NO":999,"REV_AT_EPOCH":3978,"BSTAR":0.00031729541,"MEAN_MOTION_DOT":6.966e-5,"MEAN_MOTION_DDOT":0},{"OBJECT_NAME":"FENGYUN 1C DEB","OBJECT_ID":"1999-025DXL","EPOCH":"2026-02-25T04:10:22.321344","MEAN_MOTION":15.11307044,"ECCENTRICITY":0.00591738,"INCLINATION":99.4273,"RA_OF_ASC_NODE":43.0945,"ARG_OF_PERICENTER":165.3437,"MEAN_ANOMALY":194.9519,"EPHEMERIS_TYPE":0,"CLASSIFICATION_TYPE":"U","NORAD_CAT_ID":36283,"ELEMENT_SET_NO":999,"REV_AT_EPOCH":67788,"BSTAR":0.0012995165,"MEAN_MOTION_DOT":0.00022794,"MEAN_MOTION_DDOT":0}]
